IRIDIUM 7               
1 24793U 97020B   26024.20397663  .00000673  00000+0  22445-3 0  9998
2 24793  86.3929  84.2851 0002553  96.5755 263.5732 14.36148623503615
IRIDIUM 5               
1 24795U 97020D   26023.84373759  .00009278  00000+0  71650-3 0  9991
2 24795  86.3915 341.7724 0106108  65.4561 295.7685 14.96963463518447
IRIDIUM 4               
1 24796U 97020E   26024.18790895  .00000690  00000+0  22597-3 0  9999
2 24796  86.3922  81.0191 0002313  96.6283 263.5178 14.37055415504201
IRIDIUM 914             
1 24836U 97030A   26024.26533580  .00000787  00000+0  23826-3 0  9993
2 24836  86.3910  88.9395 0002140 135.8394 224.2977 14.41118516638961
IRIDIUM 16              
1 24841U 97030F   26024.21078398  .00000889  00000+0  28228-3 0  9999
2 24841  86.4041 112.4710 0004138  78.1397 282.0266 14.38941988498788
IRIDIUM 911             
1 24842U 97030G   26024.21693371  .00001112  00000+0  29394-3 0  9999
2 24842  86.4462 110.9925 0016300  82.7303 277.5753 14.47964388507060
IRIDIUM 17              
1 24870U 97034B   26024.26231890  .00000952  00000+0  30815-3 0  9994
2 24870  86.4002 141.8691 0002750  59.5574 300.5895 14.38076774495355
IRIDIUM 920             
1 24871U 97034C   26024.22330265  .00000886  00000+0  26510-3 0  9990
2 24871  86.3995 120.6045 0013553  76.0656 284.2050 14.41783150498421
